{
  "norad_id": 56728,
  "name": "IRIDIUM 174",
  "history": [
    {
      "epoch": "2026-03-28T21:11:26.610432Z",
      "apogee_km": 655.6102761595139,
      "perigee_km": 652.1533357145154,
      "latitude_deg": -2.2144206806854648e-05,
      "longitude_deg": -116.91538617975944,
      "height_km": 656.7151862119067,
      "semi_major_axis_km": 7032.018805937014,
      "eccentricity": 0.0002458,
      "inclination_deg": 86.6135,
      "raan_deg": 27.2425,
      "arg_perigee_deg": 81.0096,
      "mean_anomaly_deg": 279.1399,
      "mean_motion_rev_day": 14.72253945
    }
  ]
}